QIANFAN-60              
1 62790U 25016F   25267.31598872  .00000053  00000+0  61403-4 0  9998
2 62790  88.9739 111.3015 0014335 208.1395 151.8984 13.52523749 36507
QIANFAN-61              
1 62791U 25016G   25267.26739715  .00000063  00000+0  79467-4 0  9996
2 62791  88.9805 111.4136 0013641 206.9979 153.0464 13.50971829 36512
QIANFAN-62              
1 62792U 25016H   25267.27154279  .00000065  00000+0  82722-4 0  9994
2 62792  88.9752 111.3245 0015005 207.9162 152.1186 13.50965838 36508
QIANFAN-63              
1 62793U 25016J   25266.77739156  .00000086  00000+0  11768-3 0  9996
2 62793  88.9760 111.3217 0014609 215.7404 144.2770 13.49732499 36472
QIANFAN-64              
1 62794U 25016K   25266.00459885  .00000081  00000+0  10493-3 0  9990
2 62794  88.9747 111.3867 0012822 207.8155 152.2313 13.52421057 36368
QIANFAN-65              
1 62795U 25016L   25267.25917473  .00000053  00000+0  63005-4 0  9998
2 62795  88.9741 111.2856 0012842 207.0867 152.9615 13.50969349 36512
QIANFAN-66              
1 62796U 25016M   25267.28802330  .00000047  00000+0  54615-4 0  9997
2 62796  88.9762 111.2372 0014052 202.7508 157.3023 13.50964535 36567
QIANFAN-67              
1 62797U 25016N   25267.29201976  .00000064  00000+0  80487-4 0  9993
2 62797  88.9752 111.2702 0013861 210.1687 149.8668 13.50966070 36536
QIANFAN-68              
1 62798U 25016P   25266.46913683  .00000070  00000+0  89224-4 0  9992
2 62798  88.9758 111.3962 0013928 210.6591 149.3747 13.50984556 36403
QIANFAN-69              
1 62799U 25016Q   25267.30030726  .00000063  00000+0  79071-4 0  9996
2 62799  88.9734 111.1982 0014682 209.6532 150.3788 13.50966116 36554
QIANFAN-70              
1 62800U 25016R   25267.31670111  .00000060  00000+0  74267-4 0  9997
2 62800  88.9756 111.3181 0014516 199.1999 160.8607 13.50970656 36516
QIANFAN-71              
1 62801U 25016S   25267.31266814  .00000057  00000+0  68976-4 0  9995
2 62801  88.9750 111.3029 0014512 213.3929 146.6308 13.50969783 36519
QIANFAN-72              
1 62802U 25016T   25267.32110943  .00000068  00000+0  88775-4 0  9999
2 62802  88.9739 111.3211 0017895 221.7576 138.2209 13.49485934 36503
QIANFAN-73              
1 63159U 25046A   25267.28202403  .00000222  00000+0  32460-3 0  9997
2 63159  88.9829 328.2379 0014382   2.3324 357.7892 13.50975359 36687
QIANFAN-74              
1 63160U 25046B   25267.26545433  .00000233  00000+0  34304-3 0  9991
2 63160  88.9830 328.1279 0002233 106.2856 253.8541 13.50968785 36744
QIANFAN-75              
1 63161U 25046C   25267.25321175  .00000247  00000+0  36396-3 0  9994
2 63161  88.9830 328.3615 0015560   4.8977 355.2323 13.50978819 36615
QIANFAN-76              
1 63162U 25046D   25267.24908215  .00000187  00000+0  27091-3 0  9995
2 63162  88.9830 328.3430 0013176   7.0578 353.0757 13.50973121 36623
QIANFAN-77              
1 63163U 25046E   25267.27098446  .00000527  00000+0  37456-3 0  9999
2 63163  88.9826 327.0005 0013230 336.7121  23.3455 13.96051076 37360
QIANFAN-78              
1 63164U 25046F   25267.29023031  .00000208  00000+0  30348-3 0  9999
2 63164  88.9831 328.2036 0014628   8.4358 351.7036 13.50977581 36709
QIANFAN-79              
1 63165U 25046G   25267.24483223  .00000240  00000+0  35370-3 0  9994
2 63165  88.9835 328.3127 0014240   7.0608 353.0741 13.50966955 36643
QIANFAN-80              
1 63166U 25046H   25267.26141422  .00000239  00000+0  35133-3 0  9994
2 63166  88.9831 328.0200 0013428  12.0518 348.0952 13.50967387 36808
QIANFAN-81              
1 63167U 25046J   25267.31485889  .00000255  00000+0  37676-3 0  9991
2 63167  88.9832 328.0830 0013934 359.2665   0.8463 13.50979588 36761
QIANFAN-82              
1 63168U 25046K   25267.27372852  .00000247  00000+0  36400-3 0  9997
2 63168  88.9832 328.1308 0012433   8.9653 351.1718 13.50967225 36749
QIANFAN-83              
1 63169U 25046L   25267.28058630  .00000273  00000+0  33855-3 0  9994
2 63169  88.9830 328.0623 0013285 357.3586   2.7499 13.61954006 36783
QIANFAN-84              
1 63170U 25046M   25267.30231190  .00000206  00000+0  30104-3 0  9993
2 63170  88.9832 328.2608 0015214   3.1181 357.0063 13.50980695 36675
QIANFAN-85              
1 63171U 25046N   25267.29846698  .00000243  00000+0  35703-3 0  9998
2 63171  88.9831 328.1332 0012725   7.4861 352.6478 13.50977446 36743
QIANFAN-86              
1 63172U 25046P   25267.30668287  .00000249  00000+0  36684-3 0  9992
2 63172  88.9833 327.9927 0010811  13.8252 346.3193 13.50977933 36826
QIANFAN-87              
1 63173U 25046Q   25267.27789889  .00000237  00000+0  34829-3 0  9997
2 63173  88.9828 328.1103 0011303   7.9869 352.1460 13.50973669 36751
QIANFAN-88              
1 63174U 25046R   25267.29432535  .00000228  00000+0  33497-3 0  9993
2 63174  88.9832 328.0611 0012009  15.6880 344.4641 13.50966928 36781
QIANFAN-89              
1 63175U 25046S   25267.25712373  .00000230  00000+0  33691-3 0  9990
2 63175  88.9832 328.2539 0015884   3.4602 356.6656 13.50968394 36672
QIANFAN-90              
1 63176U 25046T   25267.28592212  .00000217  00000+0  31724-3 0  9992
2 63176  88.9832 328.2233 0012796   3.3415 356.7819 13.50980645 36691
